{
  "type": "FeatureCollection",
  "features": [
    {
      "type": "Feature",
      "properties": {
        "id": "cb-hp-mandi-thunag-2025",
        "name": "Thunag Cloudburst 2025",
        "category": "Cloudburst",
        "state": "Himachal Pradesh",
        "district": "Mandi",
        "tehsil": "Thunag",
        "date": "30 June 2025",
        "year": 2025,
        "intensity": 100,
        "active": false,
        "triggering": "Extreme Convective Rainfall",
        "history": "Catastrophic event that triggered major debris flows and flash floods in Seraj valley.",
        "source": "HPSDMA",
        "verificationStatus": "verified",
        "historicalEvent": true
      },
      "geometry": { "type": "Point", "coordinates": [77.1685, 31.5492] }
    },
    {
      "type": "Feature",
      "properties": {
        "id": "cb-uk-rudraprayag-kedarnath-2013",
        "name": "Kedarnath Mega Cloudburst",
        "category": "Cloudburst",
        "state": "Uttarakhand",
        "district": "Rudraprayag",
        "locationName": "Kedarnath Valley",
        "date": "16 June 2013",
        "year": 2013,
        "intensity": 100,
        "active": false,
        "triggering": "GLOF / Cloudburst",
        "casualties": "5000+ estimated dead/missing",
        "history": "Extreme rainfall and glacial lake outburst devastated the Mandakini valley.",
        "source": "USDMA",
        "verificationStatus": "verified",
        "historicalEvent": true
      },
      "geometry": { "type": "Point", "coordinates": [79.0669, 30.7352] }
    },
    {
      "type": "Feature",
      "properties": {
        "id": "cb-hp-shimla-samej-2024",
        "name": "Samej Flash Flood Event",
        "category": "Cloudburst",
        "state": "Himachal Pradesh",
        "district": "Shimla",
        "tehsil": "Rampur",
        "date": "01 August 2024",
        "year": 2024,
        "intensity": 98,
        "active": false,
        "triggering": "High-intensity Cloudburst",
        "history": "Washed away entire hamlets in Samej village and damaged SJVN infrastructure.",
        "source": "HPSDMA",
        "verificationStatus": "verified"
      },
      "geometry": { "type": "Point", "coordinates": [77.6184, 31.4425] }
    },
    {
      "type": "Feature",
      "properties": {
        "id": "cb-uk-uttarkashi-2012",
        "name": "Asi Ganga Cloudburst",
        "category": "Cloudburst",
        "state": "Uttarakhand",
        "district": "Uttarkashi",
        "date": "03 August 2012",
        "year": 2012,
        "intensity": 90,
        "active": false,
        "history": "Multiple fatalities and major destruction in the Asi Ganga river basin.",
        "source": "USDMA / DMMC",
        "verificationStatus": "verified",
        "historicalEvent": true
      },
      "geometry": { "type": "Point", "coordinates": [78.4433, 30.7322] }
    },
    {
      "type": "Feature",
      "properties": {
        "id": "cb-hp-kullu-chojh-2022",
        "name": "Chojh (Manikaran) Cloudburst",
        "category": "Cloudburst",
        "state": "Himachal Pradesh",
        "district": "Kullu",
        "date": "06 July 2022",
        "year": 2022,
        "intensity": 85,
        "active": false,
        "history": "Sudden flood in a seasonal stream washed away tourism infrastructure and people.",
        "source": "HPSDMA",
        "verificationStatus": "verified"
      },
      "geometry": { "type": "Point", "coordinates": [77.3484, 32.0275] }
    },
    {
      "type": "Feature",
      "properties": {
        "id": "cb-hp-mandi-dharampur-2015",
        "name": "Dharampur Bus Stand Flood",
        "category": "Cloudburst",
        "state": "Himachal Pradesh",
        "district": "Mandi",
        "year": 2015,
        "intensity": 82,
        "active": false,
        "history": "Intense rain in the Son river catchment inundated the Dharampur market area.",
        "source": "HPSDMA",
        "verificationStatus": "verified"
      },
      "geometry": { "type": "Point", "coordinates": [76.7700, 31.8100] }
    },
    {
      "type": "Feature",
      "properties": {
        "id": "cb-uk-pithoragarh-bastadi-2016",
        "name": "Bastadi Cloudburst Disaster",
        "category": "Cloudburst",
        "state": "Uttarakhand",
        "district": "Pithoragarh",
        "year": 2016,
        "intensity": 95,
        "active": false,
        "history": "Cloudburst in Didihat area caused massive debris flow and fatalities in Bastadi village.",
        "source": "USDMA",
        "verificationStatus": "verified"
      },
      "geometry": { "type": "Point", "coordinates": [80.2200, 29.6200] }
    },
    {
      "type": "Feature",
      "properties": {
        "id": "cb-hp-chamba-bharmour-2023",
        "name": "Bharmour Flash Flood",
        "category": "Cloudburst",
        "state": "Himachal Pradesh",
        "district": "Chamba",
        "year": 2023,
        "intensity": 88,
        "active": false,
        "history": "Washouts on Mani Mahesh route during heavy monsoon rain.",
        "source": "HPSDMA",
        "verificationStatus": "verified"
      },
      "geometry": { "type": "Point", "coordinates": [76.5300, 32.4400] }
    },
    {
      "type": "Feature",
      "properties": {
        "id": "cb-uk-chamoli-ghat-2021",
        "name": "Ghat Valley Cloudburst",
        "category": "Cloudburst",
        "state": "Uttarakhand",
        "district": "Chamoli",
        "year": 2021,
        "intensity": 84,
        "active": false,
        "history": "Several shops and bridges were washed away in the Ghat market area.",
        "source": "USDMA",
        "verificationStatus": "verified"
      },
      "geometry": { "type": "Point", "coordinates": [79.4800, 30.2500] }
    },
    {
      "type": "Feature",
      "properties": {
        "id": "cb-hp-solan-parwanoo-2023",
        "name": "Parwanoo NH Washout",
        "category": "Cloudburst",
        "state": "Himachal Pradesh",
        "district": "Solan",
        "year": 2023,
        "intensity": 90,
        "active": false,
        "history": "Triggered massive landslides on NH-5; multiple sections of the road collapsed.",
        "source": "HPSDMA / NHAI",
        "verificationStatus": "verified"
      },
      "geometry": { "type": "Point", "coordinates": [76.9900, 30.8400] }
    },
    {
      "type": "Feature",
      "properties": {
        "id": "cb-hp-kullu-malana-2024",
        "name": "Malana Dam Breach Cloudburst",
        "category": "Cloudburst",
        "state": "Himachal Pradesh",
        "district": "Kullu",
        "date": "01 August 2024",
        "year": 2024,
        "intensity": 98,
        "active": false,
        "history": "Burst of Malana Dam-II following a cloudburst, causing heavy damage downstream.",
        "source": "HPSDMA",
        "verificationStatus": "verified"
      },
      "geometry": { "type": "Point", "coordinates": [77.2700, 32.0600] }
    },
    {
      "type": "Feature",
      "properties": {
        "id": "cb-hp-mandi-sambhal-2023",
        "name": "Sambhal (Pandoh) Cloudburst",
        "category": "Cloudburst",
        "state": "Himachal Pradesh",
        "district": "Mandi",
        "date": "August 2023",
        "year": 2023,
        "intensity": 92,
        "active": false,
        "history": "Flash flood in a seasonal stream swept away several houses and vehicles near Pandoh.",
        "source": "HPSDMA",
        "verificationStatus": "verified"
      },
      "geometry": { "type": "Point", "coordinates": [77.0200, 31.6800] }
    },
    {
      "type": "Feature",
      "properties": {
        "id": "cb-uk-tehri-devprayag-2021",
        "name": "Devprayag Cloudburst",
        "category": "Cloudburst",
        "state": "Uttarakhand",
        "district": "Tehri Garhwal",
        "date": "May 2021",
        "year": 2021,
        "intensity": 85,
        "active": false,
        "history": "Multiple buildings including a vocational training center were destroyed.",
        "source": "USDMA",
        "verificationStatus": "verified"
      },
      "geometry": { "type": "Point", "coordinates": [78.5900, 30.1400] }
    },
    {
      "type": "Feature",
      "properties": {
        "id": "cb-uk-nainital-ramgarh-2021",
        "name": "Ramgarh Debris Flow",
        "category": "Cloudburst",
        "state": "Uttarakhand",
        "district": "Nainital",
        "date": "October 2021",
        "year": 2021,
        "intensity": 94,
        "active": false,
        "history": "Unexpected late monsoon cloudburst caused massive damage in the fruit-growing belt of Ramgarh.",
        "source": "USDMA",
        "verificationStatus": "verified"
      },
      "geometry": { "type": "Point", "coordinates": [79.5500, 29.4500] }
    },
    {
      "type": "Feature",
      "properties": {
        "id": "cb-hp-lahaul-jhalman-2021",
        "name": "Jhalman Nallah Flood",
        "category": "Cloudburst",
        "state": "Himachal Pradesh",
        "district": "Lahaul & Spiti",
        "date": "July 2021",
        "year": 2021,
        "intensity": 88,
        "active": false,
        "history": "Cloudburst in the upper reaches of Jhalman nallah caused flash floods in the Chenab valley.",
        "source": "HPSDMA",
        "verificationStatus": "verified"
      },
      "geometry": { "type": "Point", "coordinates": [76.8500, 32.6400] }
    }
  ]
}
