{
  "type": "FeatureCollection",
  "features": [
    {
      "type": "Feature",
      "properties": { "name": "Uttarkashi" },
      "geometry": { "type": "Polygon", "coordinates": [[[77.8, 31.5], [78.8, 31.5], [79.2, 30.8], [78.2, 30.8], [77.8, 31.5]]] }
    },
    {
      "type": "Feature",
      "properties": { "name": "Chamoli" },
      "geometry": { "type": "Polygon", "coordinates": [[[79.2, 31.0], [80.2, 31.0], [80.5, 30.2], [79.5, 30.2], [79.2, 31.0]]] }
    },
    {
      "type": "Feature",
      "properties": { "name": "Rudraprayag" },
      "geometry": { "type": "Polygon", "coordinates": [[[78.8, 30.8], [79.3, 30.8], [79.4, 30.3], [78.9, 30.3], [78.8, 30.8]]] }
    },
    {
      "type": "Feature",
      "properties": { "name": "Pithoragarh" },
      "geometry": { "type": "Polygon", "coordinates": [[[80.0, 30.5], [81.1, 30.5], [81.0, 29.6], [79.9, 29.6], [80.0, 30.5]]] }
    },
    {
      "type": "Feature",
      "properties": { "name": "Dehradun" },
      "geometry": { "type": "Polygon", "coordinates": [[[77.6, 30.7], [78.2, 30.7], [78.2, 30.1], [77.6, 30.2], [77.6, 30.7]]] }
    }
  ]
}
